54667,ONEWEB-0603,2022,108.94,148.0,+,87.93,Active,1,LEO,USA,UK,Commercial,Communications,Falcon,1 54667U 22166AB  24105.32737071  .00000141  00000+0  30993-3 0  9999,2 54667  87.9311  41.9853 0002215  67.9884 292.1485 13.21826651 67066,13.21826651,0.0002215,LEO
54668,ONEWEB-0604,2022,108.94,148.0,+,87.93,Active,1,LEO,USA,UK,Commercial,Communications,Falcon,1 54668U 22166AC  24105.39045837 -.00004774  00000+0 -11591-1 0  9998,2 54668  87.9304  41.9572 0001160  70.2296 289.8963 13.21854129 67042,13.21854129,0.000116,LEO
54669,ONEWEB-0605,2022,108.94,148.0,+,87.93,Active,1,LEO,USA,UK,Commercial,Communications,Falcon,1 54669U 22166AD  24104.85427262  .00000094  00000+0  19493-3 0  9995,2 54669  87.9301  42.0968 0002552  70.7474 289.3936 13.21826344 66570,13.21826344,0.0002552,LEO
54670,ONEWEB-0606,2022,108.94,148.0,+,87.93,Active,1,LEO,USA,UK,Commercial,Communications,Falcon,1 54670U 22166AE  24105.33051922  .00000114  00000+0  24447-3 0  9995,2 54670  87.9311  41.9885 0001871  86.9446 273.1902 13.21824650 67157,13.2182465,0.0001871,LEO
54671,ONEWEB-0607,2022,108.94,148.0,+,87.93,Active,1,LEO,USA,UK,Commercial,Communications,Falcon,1 54671U 22166AF  24104.84322101 -.00000830  00000+0 -20402-2 0  9994,2 54671  87.9302  42.0651 0001953  70.0729 290.0615 13.21828915 66606,13.21828915,0.0001953,LEO
54672,ONEWEB-0608,2022,108.94,148.0,+,87.93,Active,1,LEO,USA,UK,Commercial,Communications,Falcon,1 54672U 22166AG  24105.37941449  .00000079  00000+0  16040-3 0  9993,2 54672  87.9310  41.9767 0002438  67.3498 292.7894 13.21825966 67144,13.21825966,0.0002438,LEO
54673,ONEWEB-0610,2022,108.94,148.0,+,87.93,Active,1,LEO,USA,UK,Commercial,Communications,Falcon,1 54673U 22166AH  24104.83062325  .00000020  00000+0  16698-4 0  9997,2 54673  87.9305  42.0835 0002346  70.6215 289.5173 13.21827032 66519,13.21827032,0.0002346,LEO
54674,ONEWEB-0611,2022,108.94,148.0,+,87.93,Active,1,LEO,USA,UK,Commercial,Communications,Falcon,1 54674U 22166AJ  24105.35418406  .00000079  00000+0  16039-3 0  9993,2 54674  87.9305  41.9789 0001612  88.4925 271.6394 13.21825412 67042,13.21825412,0.0001612,LEO
